INTELSAT 26 (IS-26)     
1 24732U 97007A   21348.62526470 -.00000049  00000+0  00000+0 0  9993
2 24732   9.7968  39.8679 0011216 253.5956 290.4649  0.98905288 90773
GALAXY 25 (G-25)        
1 24812U 97026A   21349.44479087  .00000010  00000+0  00000+0 0  9992
2 24812   3.2366  85.4610 0005480 173.1754  51.9247  1.00272618 89886
INTELSAT 5 (IS-5)       
1 24916U 97046A   21348.48778911  .00000097  00000+0  00000+0 0  9995
2 24916   6.8365  62.2999 0004285 199.6540 220.0370  1.00268910 89123
GALAXY 11 (G-11)        
1 26038U 99071A   21348.83894039 -.00000149  00000+0  00000+0 0  9990
2 26038   2.5601  90.0393 0000410 307.3823 255.2102  1.00271618 80584
INTELSAT 9 (IS-9)       
1 26451U 00043A   21348.65703251 -.00000278  00000+0  00000+0 0  9998
2 26451   6.8244  62.4844 0003497 191.6326  15.9635  1.00271827 27649
INTELSAT 1R (IS-1R)     
1 26608U 00072A   21349.46293226 -.00000125  00000+0  00000+0 0  9991
2 26608   3.9757  82.0683 0000950  29.3961 296.6153  1.00271481 77163
INTELSAT 10 (IS-10)     
1 26766U 01019A   21348.53403432  .00000045  00000+0  00000+0 0  9997
2 26766   5.1444  74.9099 0003894 194.4485 184.0989  1.00272400 75438
INTELSAT 901 (IS-901)   
1 26824U 01024A   21348.99552934 -.00000188  00000+0  00000+0 0  9999
2 26824   0.0181 354.6328 0001191 286.0291 134.1043  1.00270803 75093
INTELSAT 902 (IS-902)   
1 26900U 01039A   21349.42167800 -.00000268  00000+0  00000+0 0  9992
2 26900   1.9458  90.9972 0003140 179.9195 275.0938  1.00272005 74272
INTELSAT 904 (IS-904)   
1 27380U 02007A   21349.42569005 -.00000200  00000+0  00000+0 0  9990
2 27380   2.7806  87.8690 0003182 181.7986 298.3791  1.00271632 72591
DIRECTV 5 (TEMPO 1)     
1 27426U 02023A   21349.40972907 -.00000041  00000+0  00000+0 0  9999
2 27426   0.6670  95.2806 0003505 174.2335 212.1621  1.00272636 71819
INTELSAT 905 (IS-905)   
1 27438U 02027A   21348.85254645 -.00000172  00000+0  00000+0 0  9991
2 27438   2.6012  88.6429 0002895 171.7030 105.7992  1.00271246 34864
GALAXY 3C (G-3C)        
1 27445U 02030A   21348.83850431 -.00000136  00000+0  00000+0 0  9996
2 27445   0.0176 315.7757 0001640  14.2427 320.5204  1.00270410 30008
INTELSAT 906 (IS-906)   
1 27513U 02041A   21349.44444198  .00000030  00000+0  00000+0 0  9993
2 27513   1.6126  92.6106 0003069 174.8382  40.9946  1.00271180 70471
GALAXY 12 (G-12)        
1 27715U 03013B   21349.40589147  .00000072  00000+0  00000+0 0  9993
2 27715   2.8152  87.4343 0002224 185.5943 188.3758  1.00270933 68511
GALAXY 23 (G-23)        
1 27854U 03034A   21348.68979706  .00000027  00000+0  00000+0 0  9993
2 27854   0.0220 291.4727 0002829 329.3494 310.0944  1.00271595 67249
GALAXY 13 (HORIZONS 1)  
1 27954U 03044A   21349.40632757  .00000064  00000+0  00000+0 0  9999
2 27954   0.0145  59.8216 0000443 108.3295 295.4073  1.00269773 66668
INTELSAT 10-02          
1 28358U 04022A   21349.21610443  .00000004  00000+0  00000+0 0  9996
2 28358   0.0182   2.3470 0001235 270.4287 248.1391  1.00271725 64133
XM-3 (RHYTHM)           
1 28626U 05008A   21349.17185809 -.00000190  00000+0  00000+0 0  9994
2 28626   0.0488 145.4580 0000963 298.3731 336.9997  1.00270821 61570
DIRECTV 8               
1 28659U 05019A   21349.13806597  .00000016  00000+0  00000+0 0  9998
2 28659   0.0199  26.1870 0003317 247.7407 100.7586  1.00272968 60693
GALAXY 28 (G-28)        
1 28702U 05022A   21349.41391557 -.00000170  00000+0  00000+0 0  9999
2 28702   0.0213 331.6861 0001243 337.4921 195.1227  1.00271452 60335
GALAXY 14 (G-14)        
1 28790U 05030A   21348.86405927  .00000169  00000+0  00000+0 0  9997
2 28790   0.8004  93.9869 0002244 169.1132 164.6067  1.00273645 59809
GALAXY 15 (G-15)        
1 28884U 05041A   21349.40510650  .00000094  00000+0  00000+0 0  9991
2 28884   0.0260 325.2087 0001819 300.2803 191.6470  1.00273981 59117
SPACEWAY 2              
1 28903U 05046B   21348.68622111  .00000117  00000+0  00000+0 0  9999
2 28903   1.4830  89.8807 0000171 230.4919 231.3361  1.00271659 34846
GALAXY 16 (G-16)        
1 29236U 06023A   21349.41190954 -.00000111  00000+0  00000+0 0  9997
2 29236   0.0229 349.4730 0002970 283.7009 220.3793  1.00269689 56776
DIRECTV 9S              
1 29494U 06043A   21349.16751637 -.00000098  00000+0  00000+0 0  9992
2 29494   0.0102 339.5044 0003225 282.1852 141.4562  1.00270011 55613
XM-4 (BLUES)            
1 29520U 06049A   21349.40868245 -.00000007  00000+0  00000+0 0  9999
2 29520   0.0355 272.0617 0001584  38.2180 165.8861  1.00270813 55500
GALAXY 17 (G-17)        
1 31307U 07016B   21348.83928927 -.00000160  00000+0  00000+0 0  9990
2 31307   0.0208  50.6443 0003232 211.2586  32.9696  1.00271455 53304
DIRECTV 10              
1 31862U 07032A   21349.41112457 -.00000088  00000+0  00000+0 0  9991
2 31862   0.0094 179.8263 0000426  32.1966 277.4874  1.00272997 52913
SPACEWAY 3              
1 32018U 07036A   21348.91028498 -.00000137  00000+0  00000+0 0  9999
2 32018   0.0309 157.5723 0000350  65.3232  93.6483  1.00272061 52624
INTELSAT 11 (IS-11)     
1 32253U 07044B   21349.10257881 -.00000254  00000+0  00000+0 0  9991
2 32253   0.0043  77.9868 0001940 189.7426 170.1959  1.00270724 52035
HORIZONS 2              
1 32388U 07063B   21349.44854125 -.00000166  00000+0  00000+0 0  9994
2 32388   0.0154 321.5921 0002725 304.2674  64.7820  1.00271771 51381
DIRECTV 11              
1 32729U 08013A   21349.41190954 -.00000110  00000+0  00000+0 0  9998
2 32729   0.0061 279.7100 0000242 307.3015 266.3877  1.00270870 50442
GALAXY 18 (G-18)        
1 32951U 08024A   21349.40711253  .00000040  00000+0  00000+0 0  9998
2 32951   0.0185  13.7067 0003174 251.4076 202.7299  1.00273468 49599
INTELSAT 25 (IS-25)     
1 33153U 08034A   21348.99474437 -.00000209  00000+0  00000+0 0  9995
2 33153   0.0518 142.4691 0003153 121.0786 146.9419  1.00272156 49141
GALAXY 19 (G-19)        
1 33376U 08045A   21349.16538940 -.00000124  00000+0  00000+0 0  9990
2 33376   0.0127 305.7145 0003026 311.8477 149.0171  1.00271997 48349
FM-5                    
1 35493U 09034A   21348.84033589 -.00000186  00000+0  00000+0 0  9992
2 35493   0.0164 336.9834 0000698 117.7263 205.4022  1.00271527 30141
INTELSAT 14 (IS-14)     
1 36097U 09064A   21349.10257881 -.00000259  00000+0  00000+0 0  9990
2 36097   0.0225 358.8184 0002770 273.8999 163.1942  1.00268962 44206
INTELSAT 15 (IS-15)     
1 36106U 09067A   21349.44862847 -.00000169  00000+0  00000+0 0  9995
2 36106   0.0159 321.5514 0002036 316.1152  53.3035  1.00270006 44108
DIRECTV 12              
1 36131U 09075A   21349.16146546 -.00000088  00000+0  00000+0 0  9992
2 36131   0.0347 175.0418 0000158  33.3791 191.0295  1.00271735 43893
INTELSAT 16 (IS-16)     
1 36397U 10006A   21349.41644490 -.00000229  00000+0  00000+0 0  9998
2 36397   0.0137 318.9969 0002227 303.5584 255.4556  1.00270911 43221
XM-5                    
1 37185U 10053A   21349.40955465  .00000030  00000+0  00000+0 0  9991
2 37185   0.0208 132.2602 0002294 196.6858 151.9770  0.99789445 40955
INTELSAT 17 (IS-17)     
1 37238U 10065B   21349.44479087  .00000014  00000+0  00000+0 0  9990
2 37238   0.0280 266.2701 0002457   1.9543  42.2274  1.00272308 40423
INTELSAT NEW DAWN       
1 37392U 11016A   21348.86397205  .00000170  00000+0  00000+0 0  9997
2 37392   0.0135 323.6242 0001099 266.5218 197.4242  1.00273684 36780
INTELSAT 18 (IS-18)     
1 37834U 11056A   21349.46755483  .00000069  00000+0  00000+0 0  9992
2 37834   0.0206 341.8485 0002005 275.0695 175.7594  1.00270261 37354
INTELSAT 22 (IS-22)     
1 38098U 12011A   21349.44601191 -.00000043  00000+0  00000+0 0  9994
2 38098   0.0128  87.6546 0002863 180.7033  48.6340  1.00271672 35557
INTELSAT 19 (IS-19)     
1 38356U 12030A   21349.10586050 -.00000041  00000+0  00000+0 0  9999
2 38356   0.0151 319.0769 0002587 292.0134  37.0232  1.00273671 35015
INTELSAT 20 (IS-20)     
1 38740U 12043A   21349.44531417 -.00000009  00000+0  00000+0 0  9998
2 38740   0.0159  85.0025 0002294  99.3416 128.7978  1.00271016 34331
INTELSAT 21 (IS-21)     
1 38749U 12045A   21348.77413718 -.00000271  00000+0  00000+0 0  9998
2 38749   0.0182 339.0730 0001874 281.4723  43.8056  1.00271338 34037
INTELSAT 23 (IS-23)     
1 38867U 12057A   21349.42846109 -.00000269  00000+0  00000+0 0  9996
2 38867   0.0143   4.6081 0001960 259.5657 281.3566  1.00270322 33617
FM-6                    
1 39360U 13058A   21349.40850802 -.00000001  00000+0  00000+0 0  9994
2 39360   0.0223 309.7598 0000508 170.5090 354.9189  1.00269245 29858
INTELSAT 30 (IS-30)     
1 40271U 14062A   21348.51315288 -.00000138  00000+0  00000+0 0  9999
2 40271   0.0175 331.6223 0002239 143.5849  57.8792  1.00271817 26080
DIRECTV 14              
1 40333U 14078B   21349.13261810 -.00000111  00000+0  00000+0 0  9996
2 40333   0.0375 105.5063 0000277  73.8314 213.1951  1.00271977 25757
DIRECTV 15              
1 40663U 15026A   21349.16146539 -.00000087  00000+0  00000+0 0  9991
2 40663   0.0241  72.1772 0000256 120.0096 207.1106  1.00269170 24048
SKY MEXICO-1            
1 40664U 15026B   21349.41592160 -.00000219  00000+0  00000+0 0  9992
2 40664   0.0141 318.7682 0002484 313.5390 242.9473  1.00271507 24049
INTELSAT 34 (IS-34)     
1 40874U 15039A   21349.14697297 -.00000270  00000+0  00000+0 0  9993
2 40874   0.0091 336.1104 0000379 224.5330 240.8121  1.00270962 23124
INTELSAT 31 (IS-31)     
1 41581U 16035A   21349.12891098 -.00000136  00000+0  00000+0 0  9990
2 41581   0.0186 270.9348 0002700 288.7342 195.6959  1.00272202 20194
INTELSAT 36 (IS-36)     
1 41747U 16053A   21348.87112396 -.00000010  00000+0  00000+0 0  9993
2 41747   0.0113 347.8478 0000839   1.9434 116.0706  1.00270662 19456
INTELSAT 33E (IS-33E)   
1 41748U 16053B   21349.44365701  .00000065  00000+0  00000+0 0  9997
2 41748   0.0248  20.7112 0001969 239.5880  43.7410  1.00270451 19721
INTELSAT 32E (IS-32E)   
1 41945U 17007B   21349.10257881 -.00000254  00000+0  00000+0 0  9999
2 41945   0.0187   8.2702 0000267 124.3863 305.0733  1.00270083 17754
INTELSAT 35E (IS-35E)   
1 42818U 17041A   21349.42473064 -.00000222  00000+0  00000+0 0  9990
2 42818   0.0125 270.7895 0001865 352.0235 299.8907  1.00273525 16311
INTELSAT 37E (IS-37E)   
1 42950U 17059A   21349.42804494 -.00000125  00000+0  00000+0 0  9993
2 42950   0.0231 359.4114 0002994 262.0223 318.9557  1.00270021 15553
AZERSPACE 2 (IS-38)     
1 43632U 18074A   21349.44069160  .00000152  00000+0  00000+0 0  9993
2 43632   0.0044  77.6221 0001583 191.8193  18.6526  1.00272377 11966
HORIZONS 3E             
1 43633U 18074B   21349.46537437 -.00000015  00000+0  00000+0 0  9992
2 43633   0.0220 162.7429 0000777 106.1266 152.0066  1.00269014 11835
AT&T T-16               
1 44333U 19034A   21348.83737046 -.00000101  00000+0  00000+0 0  9991
2 44333   0.0122 307.5027 0000847 216.4044 120.4065  1.00269465  9132
INTELSAT 39 (IS-39)     
1 44476U 19049B   21348.86981567  .00000048  00000+0  00000+0 0  9996
2 44476   0.0254 343.5935 0000485 188.0192 287.2148  1.00269794  8655
GALAXY 30               
1 46114U 20056C   21348.68892487  .00000051  00000+0  00000+0 0  9993
2 46114   0.0197   7.0437 0002003 248.8132 310.7115  1.00270312  4793
